ONEWEB-0403             
1 50483U 21132Q   24342.79032418  .00000037  00000+0  60916-4 0  9993
2 50483  87.9108  86.1620 0001749 105.7316 254.4009 13.18686890148267
ONEWEB-0404             
1 50484U 21132R   24342.89915512 -.00000268  00000+0 -79338-3 0  9995
2 50484  87.8890 131.9130 0001828 103.3380 256.7952 13.11415864142780
ONEWEB-0405             
1 50485U 21132S   24342.80613128  .00000056  00000+0  10908-3 0  9996
2 50485  87.9106  86.1488 0001844  93.2202 266.9141 13.18689197148662
ONEWEB-0406             
1 50486U 21132T   24342.79507891  .00000078  00000+0  16584-3 0  9994
2 50486  87.9107  86.1665 0002007 122.2028 237.9299 13.18685285148297
ONEWEB-0407             
1 50487U 21132U   24342.78875630  .00000076  00000+0  15904-3 0  9996
2 50487  87.9106  86.1615 0001781  98.5977 261.5356 13.18685614148235
ONEWEB-0409             
1 50488U 21132V   24342.89745166 -.00000183  00000+0 -55353-3 0  9992
2 50488  87.8881 131.8950 0001617 108.8350 251.2953 13.11412853142670
ONEWEB-0412             
1 50489U 21132W   24342.85356599  .00000053  00000+0  10128-3 0  9992
2 50489  87.9114  86.1569 0001805  89.5485 270.5854 13.18686771148334
ONEWEB-0413             
1 50490U 21132X   24342.85830297  .00000033  00000+0  50627-4 0  9993
2 50490  87.9114  86.1682 0001657  89.7525 270.3797 13.18686705148278
